ONEWEB-0057             
1 45160U 20008AF  25345.30814190  .00002384  00000+0  67929-2 0  9992
2 45160  87.8786  73.7264 0001886 108.5404 251.5928 13.10365444283743
ONEWEB-0058             
1 45161U 20008AG  25345.21850149 -.00000187  00000+0 -57233-3 0  9996
2 45161  87.8806  73.7565 0001706  95.5267 264.6055 13.10376752283801
ONEWEB-0059             
1 45162U 20008AH  25345.29138714 -.00000345  00000+0 -10257-2 0  9992
2 45162  87.8810  73.7422 0001674 103.1113 257.0202 13.10374411283719
ONEWEB-0062             
1 45163U 20008AJ  25345.24078543 -.00000431  00000+0 -12708-2 0  9990
2 45163  87.8802  73.7279 0001752  87.4673 272.6655 13.10379291283573
ONEWEB-0065             
1 45164U 20008AK  25345.27136368 -.00000498  00000+0 -14620-2 0  9992
2 45164  87.8803  73.7375 0001585 118.1403 241.9885 13.10370888283273
ONEWEB-0066             
1 45424U 20020A   25345.22774264 -.00000356  00000+0 -10411-2 0  9990
2 45424  87.8865  58.4921 0001925 105.5434 254.5907 13.11413773278045
ONEWEB-0067             
1 45425U 20020B   25345.26519418  .00000403  00000+0  11007-2 0  9996
2 45425  87.8870  58.3883 0001789 106.5441 253.5883 13.11418288278100
ONEWEB-0080             
1 45426U 20020C   25345.27438013  .00000579  00000+0  15982-2 0  9999
2 45426  87.8865  58.4840 0001885  93.6632 266.4712 13.11416986278077
ONEWEB-0090             
1 45427U 20020D   25345.21756859  .00000057  00000+0  12506-3 0  9996
2 45427  87.8862  58.4966 0001669 101.7805 258.3510 13.11416748278035
ONEWEB-0061             
1 45428U 20020E   25345.24962940 -.00000310  00000+0 -90935-3 0  9996
2 45428  87.8868  58.4716 0001765 103.2350 256.8975 13.11421073277993
ONEWEB-0081             
1 45429U 20020F   25345.23113002 -.00000418  00000+0 -12162-2 0  9997
2 45429  87.8866  58.4912 0001879 106.5222 253.6113 13.11413380278105
ONEWEB-0069             
1 45430U 20020G   25345.22011255 -.00000066  00000+0 -22077-3 0  9991
2 45430  87.8863  58.4897 0001772 104.6016 255.5309 13.11413979278032
ONEWEB-0031             
1 45431U 20020H   25345.26844135  .00000441  00000+0  12089-2 0  9993
2 45431  87.8858  58.5038 0001655  96.5601 263.5715 13.11419274278027
ONEWEB-0027             
1 45432U 20020J   25345.21196331 -.00000212  00000+0 -58014-3 0  9994
2 45432  87.9121  43.2169 0001353  94.0244 266.1042 13.17648906281601
ONEWEB-0064             
1 45433U 20020K   25345.26674564  .00000459  00000+0  12586-2 0  9993
2 45433  87.8857  58.4937 0001571  96.9626 263.1681 13.11419607278054
ONEWEB-0018             
1 45434U 20020L   25345.22265391 -.00000164  00000+0 -49923-3 0  9995
2 45434  87.8865  58.4927 0001870 101.4125 258.7213 13.11416791277995
