[{"OBJECT_NAME":"ONEWEB-0057","OBJECT_ID":"2020-008AF","EPOCH":"2025-12-11T07:23:43.460160","MEAN_MOTION":13.10365444,"ECCENTRICITY":0.00018868,"INCLINATION":87.8786,"RA_OF_ASC_NODE":73.7264,"ARG_OF_PERICENTER":108.5404,"MEAN_ANOMALY":251.5928,"EPHEMERIS_TYPE":0,"CLASSIFICATION_TYPE":"U","NORAD_CAT_ID":45160,"ELEMENT_SET_NO":999,"REV_AT_EPOCH":28374,"BSTAR":0.0067929447,"MEAN_MOTION_DOT":2.384e-5,"MEAN_MOTION_DDOT":0},{"OBJECT_NAME":"ONEWEB-0058","OBJECT_ID":"2020-008AG","EPOCH":"2025-12-11T05:14:38.528736","MEAN_MOTION":13.10376752,"ECCENTRICITY":0.00017068,"INCLINATION":87.8806,"RA_OF_ASC_NODE":73.7565,"ARG_OF_PERICENTER":95.5267,"MEAN_ANOMALY":264.6055,"EPHEMERIS_TYPE":0,"CLASSIFICATION_TYPE":"U","NORAD_CAT_ID":45161,"ELEMENT_SET_NO":999,"REV_AT_EPOCH":28380,"BSTAR":-0.00057233461,"MEAN_MOTION_DOT":-1.87e-6,"MEAN_MOTION_DDOT":0},{"OBJECT_NAME":"ONEWEB-0059","OBJECT_ID":"2020-008AH","EPOCH":"2025-12-11T06:59:35.848896","MEAN_MOTION":13.10374411,"ECCENTRICITY":0.00016743,"INCLINATION":87.881,"RA_OF_ASC_NODE":73.7422,"ARG_OF_PERICENTER":103.1113,"MEAN_ANOMALY":257.0202,"EPHEMERIS_TYPE":0,"CLASSIFICATION_TYPE":"U","NORAD_CAT_ID":45162,"ELEMENT_SET_NO":999,"REV_AT_EPOCH":28371,"BSTAR":-0.0010257011,"MEAN_MOTION_DOT":-3.45e-6,"MEAN_MOTION_DDOT":0},{"OBJECT_NAME":"ONEWEB-0062","OBJECT_ID":"2020-008AJ","EPOCH":"2025-12-11T05:46:43.861152","MEAN_MOTION":13.10379291,"ECCENTRICITY":0.00017523,"INCLINATION":87.8802,"RA_OF_ASC_NODE":73.7279,"ARG_OF_PERICENTER":87.4673,"MEAN_ANOMALY":272.6655,"EPHEMERIS_TYPE":0,"CLASSIFICATION_TYPE":"U","NORAD_CAT_ID":45163,"ELEMENT_SET_NO":999,"REV_AT_EPOCH":28357,"BSTAR":-0.0012707915,"MEAN_MOTION_DOT":-4.31e-6,"MEAN_MOTION_DDOT":0},{"OBJECT_NAME":"ONEWEB-0065","OBJECT_ID":"2020-008AK","EPOCH":"2025-12-11T06:30:45.821952","MEAN_MOTION":13.10370888,"ECCENTRICITY":0.00015852,"INCLINATION":87.8803,"RA_OF_ASC_NODE":73.7375,"ARG_OF_PERICENTER":118.1403,"MEAN_ANOMALY":241.9885,"EPHEMERIS_TYPE":0,"CLASSIFICATION_TYPE":"U","NORAD_CAT_ID":45164,"ELEMENT_SET_NO":999,"REV_AT_EPOCH":28327,"BSTAR":-0.0014620113,"MEAN_MOTION_DOT":-4.98e-6,"MEAN_MOTION_DDOT":0},{"OBJECT_NAME":"ONEWEB-0066","OBJECT_ID":"2020-020A","EPOCH":"2025-12-11T05:27:56.964096","MEAN_MOTION":13.11413773,"ECCENTRICITY":0.00019252,"INCLINATION":87.8865,"RA_OF_ASC_NODE":58.4921,"ARG_OF_PERICENTER":105.5434,"MEAN_ANOMALY":254.5907,"EPHEMERIS_TYPE":0,"CLASSIFICATION_TYPE":"U","NORAD_CAT_ID":45424,"ELEMENT_SET_NO":999,"REV_AT_EPOCH":27804,"BSTAR":-0.0010411123,"MEAN_MOTION_DOT":-3.56e-6,"MEAN_MOTION_DDOT":0},{"OBJECT_NAME":"ONEWEB-0067","OBJECT_ID":"2020-020B","EPOCH":"2025-12-11T06:21:52.777152","MEAN_MOTION":13.11418288,"ECCENTRICITY":0.00017892,"INCLINATION":87.887,"RA_OF_ASC_NODE":58.3883,"ARG_OF_PERICENTER":106.5441,"MEAN_ANOMALY":253.5883,"EPHEMERIS_TYPE":0,"CLASSIFICATION_TYPE":"U","NORAD_CAT_ID":45425,"ELEMENT_SET_NO":999,"REV_AT_EPOCH":27810,"BSTAR":0.0011007473,"MEAN_MOTION_DOT":4.03e-6,"MEAN_MOTION_DDOT":0},{"OBJECT_NAME":"ONEWEB-0080","OBJECT_ID":"2020-020C","EPOCH":"2025-12-11T06:35:06.443232","MEAN_MOTION":13.11416986,"ECCENTRICITY":0.00018859,"INCLINATION":87.8865,"RA_OF_ASC_NODE":58.484,"ARG_OF_PERICENTER":93.6632,"MEAN_ANOMALY":266.4712,"EPHEMERIS_TYPE":0,"CLASSIFICATION_TYPE":"U","NORAD_CAT_ID":45426,"ELEMENT_SET_NO":999,"REV_AT_EPOCH":27807,"BSTAR":0.0015981646,"MEAN_MOTION_DOT":5.79e-6,"MEAN_MOTION_DDOT":0},{"OBJECT_NAME":"ONEWEB-0090","OBJECT_ID":"2020-020D","EPOCH":"2025-12-11T05:13:17.926176","MEAN_MOTION":13.11416748,"ECCENTRICITY":0.00016692,"INCLINATION":87.8862,"RA_OF_ASC_NODE":58.4966,"ARG_OF_PERICENTER":101.7805,"MEAN_ANOMALY":258.351,"EPHEMERIS_TYPE":0,"CLASSIFICATION_TYPE":"U","NORAD_CAT_ID":45427,"ELEMENT_SET_NO":999,"REV_AT_EPOCH":27803,"BSTAR":0.00012505989,"MEAN_MOTION_DOT":5.7e-7,"MEAN_MOTION_DDOT":0},{"OBJECT_NAME":"ONEWEB-0061","OBJECT_ID":"2020-020E","EPOCH":"2025-12-11T05:59:27.980160","MEAN_MOTION":13.11421073,"ECCENTRICITY":0.00017651,"INCLINATION":87.8868,"RA_OF_ASC_NODE":58.4716,"ARG_OF_PERICENTER":103.235,"MEAN_ANOMALY":256.8975,"EPHEMERIS_TYPE":0,"CLASSIFICATION_TYPE":"U","NORAD_CAT_ID":45428,"ELEMENT_SET_NO":999,"REV_AT_EPOCH":27799,"BSTAR":-0.00090935123,"MEAN_MOTION_DOT":-3.1e-6,"MEAN_MOTION_DDOT":0},{"OBJECT_NAME":"ONEWEB-0081","OBJECT_ID":"2020-020F","EPOCH":"2025-12-11T05:32:49.633728","MEAN_MOTION":13.1141338,"ECCENTRICITY":0.00018799,"INCLINATION":87.8866,"RA_OF_ASC_NODE":58.4912,"ARG_OF_PERICENTER":106.5222,"MEAN_ANOMALY":253.6113,"EPHEMERIS_TYPE":0,"CLASSIFICATION_TYPE":"U","NORAD_CAT_ID":45429,"ELEMENT_SET_NO":999,"REV_AT_EPOCH":27810,"BSTAR":-0.0012161974,"MEAN_MOTION_DOT":-4.18e-6,"MEAN_MOTION_DDOT":0},{"OBJECT_NAME":"ONEWEB-0069","OBJECT_ID":"2020-020G","EPOCH":"2025-12-11T05:16:57.724320","MEAN_MOTION":13.11413979,"ECCENTRICITY":0.00017725,"INCLINATION":87.8863,"RA_OF_ASC_NODE":58.4897,"ARG_OF_PERICENTER":104.6016,"MEAN_ANOMALY":255.5309,"EPHEMERIS_TYPE":0,"CLASSIFICATION_TYPE":"U","NORAD_CAT_ID":45430,"ELEMENT_SET_NO":999,"REV_AT_EPOCH":27803,"BSTAR":-0.00022077238,"MEAN_MOTION_DOT":-6.6e-7,"MEAN_MOTION_DDOT":0},{"OBJECT_NAME":"ONEWEB-0031","OBJECT_ID":"2020-020H","EPOCH":"2025-12-11T06:26:33.332640","MEAN_MOTION":13.11419274,"ECCENTRICITY":0.00016555,"INCLINATION":87.8858,"RA_OF_ASC_NODE":58.5038,"ARG_OF_PERICENTER":96.5601,"MEAN_ANOMALY":263.5715,"EPHEMERIS_TYPE":0,"CLASSIFICATION_TYPE":"U","NORAD_CAT_ID":45431,"ELEMENT_SET_NO":999,"REV_AT_EPOCH":27802,"BSTAR":0.0012089453,"MEAN_MOTION_DOT":4.41e-6,"MEAN_MOTION_DDOT":0},{"OBJECT_NAME":"ONEWEB-0027","OBJECT_ID":"2020-020J","EPOCH":"2025-12-11T05:05:13.629984","MEAN_MOTION":13.17648906,"ECCENTRICITY":0.00013534,"INCLINATION":87.9121,"RA_OF_ASC_NODE":43.2169,"ARG_OF_PERICENTER":94.0244,"MEAN_ANOMALY":266.1042,"EPHEMERIS_TYPE":0,"CLASSIFICATION_TYPE":"U","NORAD_CAT_ID":45432,"ELEMENT_SET_NO":999,"REV_AT_EPOCH":28160,"BSTAR":-0.00058013677,"MEAN_MOTION_DOT":-2.12e-6,"MEAN_MOTION_DDOT":0},{"OBJECT_NAME":"ONEWEB-0064","OBJECT_ID":"2020-020K","EPOCH":"2025-12-11T06:24:06.823296","MEAN_MOTION":13.11419607,"ECCENTRICITY":0.00015713,"INCLINATION":87.8857,"RA_OF_ASC_NODE":58.4937,"ARG_OF_PERICENTER":96.9626,"MEAN_ANOMALY":263.1681,"EPHEMERIS_TYPE":0,"CLASSIFICATION_TYPE":"U","NORAD_CAT_ID":45433,"ELEMENT_SET_NO":999,"REV_AT_EPOCH":27805,"BSTAR":0.0012585663,"MEAN_MOTION_DOT":4.59e-6,"MEAN_MOTION_DDOT":0},{"OBJECT_NAME":"ONEWEB-0018","OBJECT_ID":"2020-020L","EPOCH":"2025-12-11T05:20:37.297824","MEAN_MOTION":13.11416791,"ECCENTRICITY":0.00018709,"INCLINATION":87.8865,"RA_OF_ASC_NODE":58.4927,"ARG_OF_PERICENTER":101.4125,"MEAN_ANOMALY":258.7213,"EPHEMERIS_TYPE":0,"CLASSIFICATION_TYPE":"U","NORAD_CAT_ID":45434,"ELEMENT_SET_NO":999,"REV_AT_EPOCH":27799,"BSTAR":-0.0004992321,"MEAN_MOTION_DOT":-1.64e-6,"MEAN_MOTION_DDOT":0}]
